CCSDS_OMM_VERS = 2.0
CREATION_DATE  = 
ORIGINATOR     = 

OBJECT_NAME    = SL-16 R/B
OBJECT_ID      = 2000-006B
CENTER_NAME    = EARTH
REF_FRAME      = TEME
TIME_SYSTEM    = UTC
MEAN_ELEMENT_THEORY = SGP/SGP4

EPOCH          = 2026-02-05T19:05:19.746816
MEAN_MOTION    = 14.15820747
ECCENTRICITY   = .00184447
INCLINATION    = 71.0028
RA_OF_ASC_NODE = 164.8979
ARG_OF_PERICENTER = 234.9444
MEAN_ANOMALY   = 124.9950

EPHEMERIS_TYPE = 0
CLASSIFICATION_TYPE = U
NORAD_CAT_ID   = 26070
ELEMENT_SET_NO = 999
REV_AT_EPOCH   = 34404
BSTAR          = .51189257E-4
MEAN_MOTION_DOT = .53E-6
MEAN_MOTION_DDOT = 0

CCSDS_OMM_VERS = 2.0
CREATION_DATE  = 
ORIGINATOR     = 

OBJECT_NAME    = TITAN 4B R/B
OBJECT_ID      = 2000-047B
CENTER_NAME    = EARTH
REF_FRAME      = TEME
TIME_SYSTEM    = UTC
MEAN_ELEMENT_THEORY = SGP/SGP4

EPOCH          = 2026-02-06T05:18:12.303936
MEAN_MOTION    = 15.09300050
ECCENTRICITY   = .0036972
INCLINATION    = 67.9895
RA_OF_ASC_NODE = 128.9817
ARG_OF_PERICENTER = 74.1641
MEAN_ANOMALY   = 286.3579

EPHEMERIS_TYPE = 0
CLASSIFICATION_TYPE = U
NORAD_CAT_ID   = 26474
ELEMENT_SET_NO = 999
REV_AT_EPOCH   = 38816
BSTAR          = .32487277E-3
MEAN_MOTION_DOT = .5141E-4
MEAN_MOTION_DDOT = 0

CCSDS_OMM_VERS = 2.0
CREATION_DATE  = 
ORIGINATOR     = 

OBJECT_NAME    = ENVISAT
OBJECT_ID      = 2002-009A
CENTER_NAME    = EARTH
REF_FRAME      = TEME
TIME_SYSTEM    = UTC
MEAN_ELEMENT_THEORY = SGP/SGP4

EPOCH          = 2026-02-06T08:10:20.280000
MEAN_MOTION    = 14.39024999
ECCENTRICITY   = .00013024
INCLINATION    = 98.3677
RA_OF_ASC_NODE = 351.6950
ARG_OF_PERICENTER = 90.9033
MEAN_ANOMALY   = 61.6939

EPHEMERIS_TYPE = 0
CLASSIFICATION_TYPE = U
NORAD_CAT_ID   = 27386
ELEMENT_SET_NO = 999
REV_AT_EPOCH   = 25466
BSTAR          = .799356E-4
MEAN_MOTION_DOT = .204E-5
MEAN_MOTION_DDOT = 0

CCSDS_OMM_VERS = 2.0
CREATION_DATE  = 
ORIGINATOR     = 

OBJECT_NAME    = IDEFIX & ARIANE 42P R/B
OBJECT_ID      = 2002-021B
CENTER_NAME    = EARTH
REF_FRAME      = TEME
TIME_SYSTEM    = UTC
MEAN_ELEMENT_THEORY = SGP/SGP4

EPOCH          = 2026-02-05T21:24:10.793376
MEAN_MOTION    = 14.31002794
ECCENTRICITY   = .001072
INCLINATION    = 98.5839
RA_OF_ASC_NODE = 335.8848
ARG_OF_PERICENTER = 283.2526
MEAN_ANOMALY   = 76.7461

EPHEMERIS_TYPE = 0
CLASSIFICATION_TYPE = U
NORAD_CAT_ID   = 27422
ELEMENT_SET_NO = 999
REV_AT_EPOCH   = 23947
BSTAR          = .1819E-3
MEAN_MOTION_DOT = .435E-5
MEAN_MOTION_DDOT = 0

CCSDS_OMM_VERS = 2.0
CREATION_DATE  = 
ORIGINATOR     = 

OBJECT_NAME    = AQUA
OBJECT_ID      = 2002-022A
CENTER_NAME    = EARTH
REF_FRAME      = TEME
TIME_SYSTEM    = UTC
MEAN_ELEMENT_THEORY = SGP/SGP4

EPOCH          = 2026-02-06T06:39:48.547872
MEAN_MOTION    = 14.61898018
ECCENTRICITY   = .00015964
INCLINATION    = 98.4120
RA_OF_ASC_NODE = 4.0848
ARG_OF_PERICENTER = 55.0437
MEAN_ANOMALY   = 50.0935

EPHEMERIS_TYPE = 0
CLASSIFICATION_TYPE = U
NORAD_CAT_ID   = 27424
ELEMENT_SET_NO = 999
REV_AT_EPOCH   = 26414
BSTAR          = .31923501E-3
MEAN_MOTION_DOT = .1548E-4
MEAN_MOTION_DDOT = 0

CCSDS_OMM_VERS = 2.0
CREATION_DATE  = 
ORIGINATOR     = 

OBJECT_NAME    = CZ-4B R/B
OBJECT_ID      = 2002-024C
CENTER_NAME    = EARTH
REF_FRAME      = TEME
TIME_SYSTEM    = UTC
MEAN_ELEMENT_THEORY = SGP/SGP4

EPOCH          = 2026-02-06T02:16:52.772736
MEAN_MOTION    = 14.14541952
ECCENTRICITY   = .00511179
INCLINATION    = 98.8907
RA_OF_ASC_NODE = 90.6503
ARG_OF_PERICENTER = 112.4504
MEAN_ANOMALY   = 278.0191

EPHEMERIS_TYPE = 0
CLASSIFICATION_TYPE = U
NORAD_CAT_ID   = 27432
ELEMENT_SET_NO = 999
REV_AT_EPOCH   = 22477
BSTAR          = .54294886E-4
MEAN_MOTION_DOT = .61E-6
MEAN_MOTION_DDOT = 0

CCSDS_OMM_VERS = 2.0
CREATION_DATE  = 
ORIGINATOR     = 

OBJECT_NAME    = MIDORI II (ADEOS-II)
OBJECT_ID      = 2002-056A
CENTER_NAME    = EARTH
REF_FRAME      = TEME
TIME_SYSTEM    = UTC
MEAN_ELEMENT_THEORY = SGP/SGP4

EPOCH          = 2026-02-06T07:13:51.659040
MEAN_MOTION    = 14.29260888
ECCENTRICITY   = .00021615
INCLINATION    = 98.7716
RA_OF_ASC_NODE = 355.5738
ARG_OF_PERICENTER = 87.0872
MEAN_ANOMALY   = 273.0556

EPHEMERIS_TYPE = 0
CLASSIFICATION_TYPE = U
NORAD_CAT_ID   = 27597
ELEMENT_SET_NO = 999
REV_AT_EPOCH   = 20581
BSTAR          = .2074138E-3
MEAN_MOTION_DOT = .482E-5
MEAN_MOTION_DDOT = 0

CCSDS_OMM_VERS = 2.0
CREATION_DATE  = 
ORIGINATOR     = 

OBJECT_NAME    = H-2A R/B
OBJECT_ID      = 2002-056E
CENTER_NAME    = EARTH
REF_FRAME      = TEME
TIME_SYSTEM    = UTC
MEAN_ELEMENT_THEORY = SGP/SGP4

EPOCH          = 2026-02-06T07:47:00.250944
MEAN_MOTION    = 14.33737999
ECCENTRICITY   = .00690157
INCLINATION    = 98.3147
RA_OF_ASC_NODE = 358.8952
ARG_OF_PERICENTER = 254.9210
MEAN_ANOMALY   = 276.3099

EPHEMERIS_TYPE = 0
CLASSIFICATION_TYPE = U
NORAD_CAT_ID   = 27601
ELEMENT_SET_NO = 999
REV_AT_EPOCH   = 20961
BSTAR          = .17599661E-3
MEAN_MOTION_DOT = .46E-5
MEAN_MOTION_DDOT = 0

CCSDS_OMM_VERS = 2.0
CREATION_DATE  = 
ORIGINATOR     = 

OBJECT_NAME    = CZ-4B R/B
OBJECT_ID      = 2003-049C
CENTER_NAME    = EARTH
REF_FRAME      = TEME
TIME_SYSTEM    = UTC
MEAN_ELEMENT_THEORY = SGP/SGP4

EPOCH          = 2026-02-05T22:57:09.686304
MEAN_MOTION    = 14.54984615
ECCENTRICITY   = .004761
INCLINATION    = 98.6844
RA_OF_ASC_NODE = 30.6253
ARG_OF_PERICENTER = 329.8466
MEAN_ANOMALY   = 29.9991

EPHEMERIS_TYPE = 0
CLASSIFICATION_TYPE = U
NORAD_CAT_ID   = 28059
ELEMENT_SET_NO = 999
REV_AT_EPOCH   = 18198
BSTAR          = .17378E-3
MEAN_MOTION_DOT = .707E-5
MEAN_MOTION_DDOT = 0

CCSDS_OMM_VERS = 2.0
CREATION_DATE  = 
ORIGINATOR     = 

OBJECT_NAME    = CZ-2C R/B
OBJECT_ID      = 2004-012C
CENTER_NAME    = EARTH
REF_FRAME      = TEME
TIME_SYSTEM    = UTC
MEAN_ELEMENT_THEORY = SGP/SGP4

EPOCH          = 2026-02-06T02:28:03.889056
MEAN_MOTION    = 15.60941550
ECCENTRICITY   = .00162227
INCLINATION    = 97.7308
RA_OF_ASC_NODE = 99.4830
ARG_OF_PERICENTER = 69.4345
MEAN_ANOMALY   = 290.8650

EPHEMERIS_TYPE = 0
CLASSIFICATION_TYPE = U
NORAD_CAT_ID   = 28222
ELEMENT_SET_NO = 999
REV_AT_EPOCH   = 19934
BSTAR          = .71809666E-3
MEAN_MOTION_DOT = .6073E-3
MEAN_MOTION_DDOT = 0

CCSDS_OMM_VERS = 2.0
CREATION_DATE  = 
ORIGINATOR     = 

OBJECT_NAME    = SL-16 R/B
OBJECT_ID      = 2004-021B
CENTER_NAME    = EARTH
REF_FRAME      = TEME
TIME_SYSTEM    = UTC
MEAN_ELEMENT_THEORY = SGP/SGP4

EPOCH          = 2026-02-06T03:09:05.604768
MEAN_MOTION    = 14.14589375
ECCENTRICITY   = .00028573
INCLINATION    = 71.0004
RA_OF_ASC_NODE = 298.7234
ARG_OF_PERICENTER = 88.7524
MEAN_ANOMALY   = 271.3926

EPHEMERIS_TYPE = 0
CLASSIFICATION_TYPE = U
NORAD_CAT_ID   = 28353
ELEMENT_SET_NO = 999
REV_AT_EPOCH   = 11837
BSTAR          = .39421774E-4
MEAN_MOTION_DOT = .28E-6
MEAN_MOTION_DDOT = 0

CCSDS_OMM_VERS = 2.0
CREATION_DATE  = 
ORIGINATOR     = 

OBJECT_NAME    = CZ-4B R/B
OBJECT_ID      = 2004-035C
CENTER_NAME    = EARTH
REF_FRAME      = TEME
TIME_SYSTEM    = UTC
MEAN_ELEMENT_THEORY = SGP/SGP4

EPOCH          = 2026-02-06T00:47:21.047136
MEAN_MOTION    = 15.28475627
ECCENTRICITY   = .00342506
INCLINATION    = 97.3547
RA_OF_ASC_NODE = 71.6611
ARG_OF_PERICENTER = 81.7311
MEAN_ANOMALY   = 278.7810

EPHEMERIS_TYPE = 0
CLASSIFICATION_TYPE = U
NORAD_CAT_ID   = 28415
ELEMENT_SET_NO = 999
REV_AT_EPOCH   = 17507
BSTAR          = .45460757E-3
MEAN_MOTION_DOT = .12754E-3
MEAN_MOTION_DDOT = 0

CCSDS_OMM_VERS = 2.0
CREATION_DATE  = 
ORIGINATOR     = 

OBJECT_NAME    = CZ-2C R/B
OBJECT_ID      = 2004-046B
CENTER_NAME    = EARTH
REF_FRAME      = TEME
TIME_SYSTEM    = UTC
MEAN_ELEMENT_THEORY = SGP/SGP4

EPOCH          = 2026-02-06T05:05:57.595488
MEAN_MOTION    = 14.26980783
ECCENTRICITY   = .01382307
INCLINATION    = 98.1997
RA_OF_ASC_NODE = 314.1511
ARG_OF_PERICENTER = 247.8260
MEAN_ANOMALY   = 110.8205

EPHEMERIS_TYPE = 0
CLASSIFICATION_TYPE = U
NORAD_CAT_ID   = 28480
ELEMENT_SET_NO = 999
REV_AT_EPOCH   = 10401
BSTAR          = .98092138E-4
MEAN_MOTION_DOT = .222E-5
MEAN_MOTION_DDOT = 0

CCSDS_OMM_VERS = 2.0
CREATION_DATE  = 
ORIGINATOR     = 

OBJECT_NAME    = ARIANE 5 R/B
OBJECT_ID      = 2004-049H
CENTER_NAME    = EARTH
REF_FRAME      = TEME
TIME_SYSTEM    = UTC
MEAN_ELEMENT_THEORY = SGP/SGP4

EPOCH          = 2026-02-05T23:15:06.124032
MEAN_MOTION    = 14.85199445
ECCENTRICITY   = .0085501
INCLINATION    = 98.2575
RA_OF_ASC_NODE = 204.2505
ARG_OF_PERICENTER = 93.8736
MEAN_ANOMALY   = 267.2258

EPHEMERIS_TYPE = 0
CLASSIFICATION_TYPE = U
NORAD_CAT_ID   = 28499
ELEMENT_SET_NO = 999
REV_AT_EPOCH   = 14108
BSTAR          = .16613E-3
MEAN_MOTION_DOT = .1456E-4
MEAN_MOTION_DDOT = 0

CCSDS_OMM_VERS = 2.0
CREATION_DATE  = 
ORIGINATOR     = 

OBJECT_NAME    = CZ-2D R/B
OBJECT_ID      = 2005-024B
CENTER_NAME    = EARTH
REF_FRAME      = TEME
TIME_SYSTEM    = UTC
MEAN_ELEMENT_THEORY = SGP/SGP4

EPOCH          = 2026-02-05T23:52:54.739200
MEAN_MOTION    = 15.57386207
ECCENTRICITY   = .00072526
INCLINATION    = 97.3617
RA_OF_ASC_NODE = 51.0479
ARG_OF_PERICENTER = 122.9954
MEAN_ANOMALY   = 237.2000

EPHEMERIS_TYPE = 0
CLASSIFICATION_TYPE = U
NORAD_CAT_ID   = 28738
ELEMENT_SET_NO = 999
REV_AT_EPOCH   = 13484
BSTAR          = .71152661E-3
MEAN_MOTION_DOT = .52297E-3
MEAN_MOTION_DDOT = 0

